[{"OBJECT_NAME":"STARLINK-2571","OBJECT_ID":"2021-038BA","EPOCH":"2026-03-09T22:34:34.275072","MEAN_MOTION":15.29348637,"ECCENTRICITY":0.00013661,"INCLINATION":53.16,"RA_OF_ASC_NODE":331.6456,"ARG_OF_PERICENTER":95.8389,"MEAN_ANOMALY":264.2767,"EPHEMERIS_TYPE":0,"CLASSIFICATION_TYPE":"U","NORAD_CAT_ID":48401,"ELEMENT_SET_NO":999,"REV_AT_EPOCH":26747,"BSTAR":-0.00019056542,"MEAN_MOTION_DOT":-5.849e-5,"MEAN_MOTION_DDOT":0},{"OBJECT_NAME":"PHISAT 2","OBJECT_ID":"2024-149C","EPOCH":"2026-03-09T18:55:12.732384","MEAN_MOTION":15.29548632,"ECCENTRICITY":0.00011753,"INCLINATION":97.3806,"RA_OF_ASC_NODE":148.6498,"ARG_OF_PERICENTER":168.623,"MEAN_ANOMALY":191.5037,"EPHEMERIS_TYPE":0,"CLASSIFICATION_TYPE":"U","NORAD_CAT_ID":60470,"ELEMENT_SET_NO":999,"REV_AT_EPOCH":8679,"BSTAR":0.00031420974,"MEAN_MOTION_DOT":8.925e-5,"MEAN_MOTION_DDOT":0}]
